OBJECT_NAME,OBJECT_ID,EPOCH,MEAN_MOTION,ECCENTRICITY,INCLINATION,RA_OF_ASC_NODE,ARG_OF_PERICENTER,MEAN_ANOMALY,EPHEMERIS_TYPE,CLASSIFICATION_TYPE,NORAD_CAT_ID,ELEMENT_SET_NO,REV_AT_EPOCH,BSTAR,MEAN_MOTION_DOT,MEAN_MOTION_DDOT
POLYITAN-1,2014-033AJ,2026-06-13T14:14:17.684736,15.33140093,.00083785,98.0941,190.5143,151.4693,208.7007,0,U,40042,999,65304,.59021743E-3,.18854E-3,0
TIGRISAT,2014-033AK,2026-06-13T09:50:47.853312,14.85149002,.0050698,97.7823,314.5086,87.2860,273.4156,0,U,40043,999,64506,.2353429E-3,.2006E-4,0
AEROCUBE 6A,2014-033AM,2026-06-13T10:00:07.036704,14.98071450,.00391885,97.7227,331.4054,30.7558,329.5949,0,U,40045,999,64605,.52321425E-3,.6229E-4,0
AEROCUBE 6B,2014-033AN,2026-06-13T10:08:45.694176,14.99536094,.00386355,97.7232,331.1933,22.2270,338.0617,0,U,40046,999,64619,.47408603E-3,.5856E-4,0
CANX-5,2014-034D,2026-06-13T15:18:20.486304,14.81276153,.00134231,98.3129,39.8639,28.1378,332.0556,0,U,40056,999,63481,.12511467E-3,.919E-5,0
UKUBE-1,2014-037F,2026-06-13T12:46:14.612448,15.13501714,.00024569,98.4231,167.4199,135.5420,224.6006,0,U,40074,999,64800,.49902764E-3,.8861E-4,0
BRITE-PL2 (HEWELIUSZ),2014-049B,2026-06-13T13:22:12.175968,14.94582898,.00151794,97.9094,276.5291,119.2476,241.0263,0,U,40119,999,64090,.14332866E-3,.1494E-4,0
AEROCUBE 5C,2015-058B,2026-06-13T14:48:29.131776,14.91438982,.01306015,64.7679,273.6963,64.6688,296.7884,0,U,40965,999,36512,.22036611E-3,.2422E-4,0
SINOD-D 1,2015-058E,2026-06-13T14:26:44.886624,14.95885116,.01188073,64.7760,270.1398,54.5085,306.7044,0,U,40968,999,11612,.2787568E-3,.3423E-4,0
SNAP-3 EDDIE,2015-058J,2026-06-13T04:35:46.189248,15.60431383,.0028908,64.7418,108.4877,19.1787,341.0440,0,U,40972,999,11840,.15078127E-2,.129003E-2,0
PROPCUBE 3,2015-058K,2026-06-13T14:17:10.415616,14.94239787,.01238601,64.7689,263.7580,61.3273,300.0228,0,U,40973,999,11426,.2484471E-3,.2929E-4,0
BISONSAT,2015-058L,2026-06-13T08:08:42.843264,15.16110491,.00786793,64.7583,186.0846,48.8392,311.9484,0,U,40974,999,11503,.52740827E-3,.10852E-3,0
SNAP-3 JIMI,2015-058M,2026-06-13T12:40:08.728320,15.02269914,.01059655,64.7647,231.3502,56.8578,304.2652,0,U,40975,999,11367,.31893366E-3,.4581E-4,0
PROPCUBE 1 (FLORA),2015-058N,2026-06-13T15:16:46.525440,14.89207367,.01305774,64.7755,306.2398,62.3131,299.1159,0,U,40976,999,11573,.23442224E-3,.2432E-4,0
RAVAN,2016-067B,2026-06-13T05:53:56.497056,15.54321353,.0004962,97.9900,53.3642,43.7720,316.3925,0,U,41849,999,52708,.77475E-3,.50837E-3,0
CELTEE 1,2016-067C,2026-06-13T14:03:17.209440,15.19649941,.00007284,98.0678,30.9074,119.4992,240.6314,0,U,41850,999,52533,.27050716E-3,.5691E-4,0
AEROCUBE 8D,2016-067E,2026-06-13T14:39:42.810624,15.24352008,.00045021,98.0691,34.5106,131.9611,228.2008,0,U,41852,999,52552,.30932666E-3,.7493E-4,0
AEROCUBE 8C,2016-067F,2026-06-13T13:42:01.628352,15.24599209,.00067212,98.0563,31.7001,78.9064,281.2927,0,U,41853,999,52551,.33621679E-3,.8216E-4,0
CORVUS BC1,2017-042Y,2026-06-13T09:40:50.291904,15.06441369,.00131723,97.4084,326.7121,100.7740,259.4971,0,U,42847,999,48652,.26789323E-3,.3899E-4,0
MAKERSAT 0,2017-073D,2026-06-13T15:40:16.610592,15.31989436,.0105291,97.4638,47.1449,285.8058,73.1594,0,U,43016,999,46592,.51522909E-3,.18894E-3,0
